#dP2022  5  8  0  0  0.00000000      97 __u+U IGS14 FIT  IAC
## 2209      0.00000000   900.00000000 59707 0.0000000000000
+  115   C06C07C08C09C10C11C12C13C14C16C19C20C21C22C23C24C25
+        C26C27C28C29C30C32C33C34C35C36C37C38C39C40C41C42C43
+        C44C45C46E02E03E04E05E07E08E09E10E11E12E13E14E15E18
+        E19E21E24E25E26E27E30E31E33E34E36G01G02G03G04G05G06
+        G07G08G09G10G12G13G14G15G16G17G18G19G20G21G22G23G24
+        G25G26G27G28G29G30G31G32J02J03R01R02R03R04R05R07R08
+        R09R11R12R13R14R15R17R18R19R20R21R22R24  0  0  0  0
++         7  7  7  7  7  6  6  7  6  7  6  6  6  5  5  5  5
++         6  5  5  5  6  6  6  6  6  6  5  6  6  6  6  6  6
++         6  6  5  4  4  4  4  4  5  4  4  4  4  4  4  4  5
++         5  4  4  4  4  4  4  4  4  4  4  3  3  3  3  3  3
++         3  3  3  3  3  3  3  3  3  3  3  4  3  3  3  3  3
++         3  3  3  4  3  3  3  3  0  9  7  6  6  6  6  6  6
++         6  6  6  6  6  6  6  6  7  7  6  7  6  0  0  0  0
%c M  cc GPS ccc cccc cccc cccc cccc ccccc ccccc ccccc ccccc
%c cc cc ccc ccc cccc cccc cccc cccc ccccc ccccc ccccc ccccc
%f  1.2500000  1.025000000  0.00000000000  0.000000000000000
%f  0.0000000  0.000000000  0.00000000000  0.000000000000000
%i    0    0    0    0      0      0      0      0         0
%i    0    0    0    0      0      0      0      0         0
/* INFORMATION & ANALYSIS CENTER (IAC)            FINAL DATA
/* S/V CLOCKS ARE ALIGNED TO GNSS TIME                      
/* G:C1WC2W R:C1PC2P E:C1XC5X C:C2IC6I J:C1CC2S             
/* PCV:IGS14_2196 OL/AL:FES2004  NONE     YN ORB:CoN CLK:CoN
*  2022 05 08 17 45  0.00000000
PC06  -1357.712856  29212.932931  30472.451260    -54.803289
PC07 -17502.676073  29481.490793 -24648.288273   -140.707811
PC08 -10890.470964  40462.421955  -4002.154768    302.310082
PC09   6584.763341  33382.990934  25572.606583   -768.978552
PC10  -9271.578857  29574.855006 -28525.043388    133.188487
PC11   7735.043722  21334.692462 -16164.074122    340.000880
PC12  -9546.789733  12028.042463 -23270.890186   -619.085608
PC13  -5129.109312  41514.973588   4087.001800    -38.540023
PC14  -1580.907976  16867.823690  22212.113435    470.656958
PC16  -3865.404020  27264.832050  32176.526768    129.126270
PC19  -9396.434944 -13195.020115 -22694.320980    871.719674
PC20  10299.776381 -17573.143481 -19039.129925   -907.030900
PC21 -25120.116391  11628.274533   3681.918393   -254.516216
PC22 -24490.878589  -1040.092229 -13360.477467   -971.957487
PC23  15123.352211   6786.109285 -22444.641040   -930.162613
PC24  -7794.319302  26511.007153   3800.276017   -961.882235
PC25   6454.788677  23182.166319 -14120.336656   -739.575919
PC26 -15318.990046  15193.365995  17669.726186    740.680367
PC27  17061.432457  -4832.264129  21528.276705    720.088718
PC28  23432.959847  11406.882891   9974.893195     64.431480
PC29 -16774.321621 -20803.033610   8018.576523    551.959861
PC30    803.622578 -18226.696499  21098.569020    498.184668
PC32  25040.066376 -11759.545647  -3582.994249   -962.844095
PC33   9351.672839  13247.696843  22719.675457   -965.789734
PC34    188.424813  18766.170156 -20675.896831   -408.025096
PC35 -23827.797438 -11291.168144  -9093.820510    264.855241
PC36  -5579.045104 -23655.817714  13737.315933   -963.958776
PC37  15928.702753 -13732.497093 -18336.698353   -914.048587
PC38 -14634.850677  37856.170743 -11140.756280    230.724069
PC39  -8861.136184  23403.448203  33988.694709     34.972148
PC40 -24520.867401  23664.661681 -24967.676798    267.395700
PC41  24245.798167   1388.288438  13797.773879   -965.787078
PC42 -11342.188869  17638.656760  18472.887724   -965.078218
PC43  16170.062007  21059.086188  -8645.161305   -925.297116
PC44 -17070.081779   5416.485829 -21407.330745    653.167162
PC45 -15093.411164  -6455.792635  22570.281728    751.820804
PC46   6829.509228 -26973.096623  -2369.762694   -313.891643
PE02  15183.691397   7574.865576 -24259.292873    297.879849
PE03  26265.410831  10688.087719   8469.286426   -556.191552
PE04 -27862.962201   2113.730182   9782.802005  -1023.595706
PE05   9186.503925  17447.227033  22084.420252   -183.501214
PE07  12965.116376 -13953.434644 -22643.355483   -666.493700
PE08  27732.593956  -2334.625322 -10054.405882   -525.682464
PE09 -12783.202784  13922.597135  22793.160216   -511.368208
PE10 -11748.454209  12767.993712 -23992.560898   -511.716078
PE11  -5170.102478  21960.589667 -19185.763717   3730.015847
PE12 -16283.740308   2093.574065 -24632.873328   4623.741034
PE13   5549.819663 -21419.523643  19654.984014    428.544981
PE14  15109.499679  -8415.571652  15813.397132  -1841.856331
PE15  16268.940033  -1898.993780  24657.786356    746.885104
PE18 -20328.544829  12020.465359 -22337.642959  -1472.412268
PE19 -24886.257635 -11966.772234 -10647.909513  -4330.490177
PE21    426.540805 -21727.787547  20094.484225   -733.021987
PE24 -17439.354765  23715.407823  -3006.318170   -603.986176
PE25   -669.605582  21857.741912 -19944.247228   -573.220567
PE26  -8862.318142 -28155.646500   2180.349324  -1121.400446
PE27  16638.195291 -24135.365511   4135.638263   -294.185616
PE30  22955.333620 -11333.864674 -14881.173277   -494.243618
PE31 -22916.651775  12311.232696  14124.542845   -496.309855
PE33 -17339.320922 -18629.976336 -15102.359973   -456.840509
PE34  17414.368182  18445.072862  15244.626347   -516.047100
PE36   8352.577602  28230.764621  -3147.018957   -370.811762
PG01  14147.413174  -3102.902840  21966.606844    367.380707
PG02 -14443.905026 -18350.891112 -11855.870425   -653.277405
PG03  21809.710600 -10899.782232  10283.211718   -236.953313
PG04  23775.603262   -705.058699 -11895.879720   -169.099138
PG05 -17129.539204  -2804.238915 -20309.862768    -81.123426
PG06  -5457.080344 -25940.065095    733.268258    295.772018
PG07   7343.754930 -19260.444071 -16065.776892    321.852270
PG08  26083.975125   5176.164450   2901.506156    -67.183126
PG09  16164.132547  -9407.127374 -18934.095792   -338.237923
PG10  -7194.674409  20737.281026  14890.285707   -407.031474
PG12 -21977.202190   6237.238393  13176.430650   -212.388245
PG13 -22593.026302 -13528.269708  -4267.660346    308.014402
PG14   9026.417494 -20804.536046  13749.685181   -107.306422
PG15 -26426.386950  -2152.737049   2985.796278    -62.820851
PG16  13469.174346   8326.846777 -21659.187388   -499.095357
PG17  -1110.038907 -15933.229533  21643.204683    610.192797
PG18  -7750.233060  18922.748307 -16896.248304    175.405473
PG19  -9359.391982 -17062.241979  17909.494655    154.700931
PG20  -9872.423247 -12478.530715 -21283.969885    515.460547
PG21  17010.033732   7852.425359  19720.780716    160.979844
PG22  11882.572871  17299.062211  16799.561049    255.898617
PG23 -15826.030999  20648.217579   5071.660870    -20.540039
PG24 -16336.564209   -922.317823  20683.908619    244.544731
PG25 -19667.595296  17563.104515   1202.985532    322.150987
PG26   4384.479582  16791.159212 -20115.611696    204.239181
PG27  21820.745635  12859.404497  -8851.596021    199.409676
PG28   1162.230727 -18222.586248  19881.076848    361.272055
PG29 -17131.166758   7093.711082 -19095.534178   -511.532296
PG30   1220.778229 -24875.432123  -8780.081906   -527.106157
PG31   6863.603160  25314.606961  -2143.190450   -176.774416
PG32   4532.554420  16409.936880  20576.281666   -122.586277
PJ02      0.000000      0.000000      0.000000 999999.999999
PJ03 -21731.007198  20045.864873 -25472.950634     -2.021847
PR01   2393.331236  10800.309099  22991.751652      8.519788
PR02  20753.861505   3761.309961  14438.166089    517.767192
PR03  24933.064041  -5013.247249  -2252.001532     56.303031
PR04  15200.375944 -10606.212468 -17494.463035    140.546024
PR05  -2847.666760 -10478.111118 -23063.716962     92.535271
PR07 -24714.662620   5384.441209   3157.113654     34.829791
PR08 -14953.203932  10815.967409  17660.235400    -65.024624
PR09  -9058.504968  -7730.778904  22566.072753     53.980396
PR11 -10804.646784  22553.139361   5077.393523     39.476377
PR12  -1520.356541  21794.596344 -13128.242039     18.345720
PR13   8143.762183   9028.620429 -22439.406802    -22.014894
PR14  13639.448992 -10503.101566 -18805.426216     77.371337
PR15  10775.253701 -22734.929887  -4177.975333     96.278853
PR17  14290.559796   2631.924440  20957.898979    524.313251
PR18   3286.536369 -11976.311933  22279.644436    116.183167
PR19  -8163.430033 -20471.358802  12836.874963   -188.286334
PR20 -17024.436769 -17517.119614  -7264.113912    -70.190153
PR21 -13515.238913  -1423.185818 -21596.804237   -299.632541
PR22  -2564.256113  12693.560156 -22015.979248   -181.903376
PR24  17674.295242  16619.038998   7877.703050     92.780954
EOF
